start=new Date('2022-02-13T00:00:00.000Z').valueOf();
sats=[{"MEAN_MOTION_DDOT":"0.0000000000000","OBJECT_ID":"2020-035AH","BSTAR":"-0.00001578500000","MEAN_ELEMENT_THEORY":"SGP4","COUNTRY_CODE":"US","OBJECT_TYPE":"PAYLOAD","RA_OF_ASC_NODE":"248.1166","DECAY_DATE":null,"NORAD_CAT_ID":"45688","GP_ID":"195797292","RCS_SIZE":"LARGE","MEAN_MOTION_DOT":"-0.00000517","EPOCH":"2022-02-12T13:22:26.806080","TLE_LINE1":"1 45688U 20035AH  22043.55725470 -.00000517  00000-0 -15785-4 0  9992","EPHEMERIS_TYPE":"0","PERIAPSIS":"546.022","ECCENTRICITY":"0.00016920","APOAPSIS":"548.366","ARG_OF_PERICENTER":"60.9015","OBJECT_NAME":"STARLINK-1408","CLASSIFICATION_TYPE":"U","FILE":"3298435","PERIOD":"95.592","ELEMENT_SET_NO":"999","MEAN_MOTION":"15.06406417","REV_AT_EPOCH":"9446","INCLINATION":"53.0523","SITE":"AFETR","LAUNCH_DATE":"2020-06-04","REF_FRAME":"TEME","SEMIMAJOR_AXIS":"6925.329","TLE_LINE2":"2 45688  53.0523 248.1166 0001692  60.9015 299.2143 15.06406417 94465","CENTER_NAME":"EARTH","MEAN_ANOMALY":"299.2143","TIME_SYSTEM":"UTC"},{"MEAN_MOTION":"15.06411403","ELEMENT_SET_NO":"999","PERIOD":"95.591","SITE":"AFETR","INCLINATION":"53.0547","REV_AT_EPOCH":"9478","SEMIMAJOR_AXIS":"6925.314","TLE_LINE2":"2 45689  53.0547 248.3050 0001754  70.1143 290.0035 15.06411403 94785","MEAN_ANOMALY":"290.0035","CENTER_NAME":"EARTH","REF_FRAME":"TEME","LAUNCH_DATE":"2020-06-04","TIME_SYSTEM":"UTC","EPHEMERIS_TYPE":"0","PERIAPSIS":"545.964","TLE_LINE1":"1 45689U 20035AJ  22043.51670658 -.00000304  00000-0 -15031-5 0  9995","EPOCH":"2022-02-12T12:24:03.448512","ECCENTRICITY":"0.00017540","ARG_OF_PERICENTER":"70.1143","OBJECT_NAME":"STARLINK-1413","APOAPSIS":"548.393","FILE":"3298493","CLASSIFICATION_TYPE":"U","OBJECT_TYPE":"PAYLOAD","COUNTRY_CODE":"US","MEAN_ELEMENT_THEORY":"SGP4","RA_OF_ASC_NODE":"248.3050","NORAD_CAT_ID":"45689","DECAY_DATE":null,"MEAN_MOTION_DOT":"-0.00000304","RCS_SIZE":"LARGE","GP_ID":"195819777","MEAN_MOTION_DDOT":"0.0000000000000","BSTAR":"-0.00000150310000","OBJECT_ID":"2020-035AJ"},{"ECCENTRICITY":"0.00015730","EPOCH":"2022-02-12T19:50:31.210368","TLE_LINE1":"1 45690U 20035AK  22043.82675012  .00000175  00000-0  31198-4 0  9995","EPHEMERIS_TYPE":"0","PERIAPSIS":"548.608","FILE":"3298923","CLASSIFICATION_TYPE":"U","APOAPSIS":"550.788","OBJECT_NAME":"STARLINK-1414","ARG_OF_PERICENTER":"75.3184","REV_AT_EPOCH":"9447","SITE":"AFETR","INCLINATION":"52.9992","PERIOD":"95.644","ELEMENT_SET_NO":"999","MEAN_MOTION":"15.05589728","TIME_SYSTEM":"UTC","REF_FRAME":"TEME","LAUNCH_DATE":"2020-06-04","SEMIMAJOR_AXIS":"6927.833","TLE_LINE2":"2 45690  52.9992 246.9302 0001573  75.3184 284.7978 15.05589728 94471","MEAN_ANOMALY":"284.7978","CENTER_NAME":"EARTH","MEAN_MOTION_DDOT":"0.0000000000000","BSTAR":"0.00003119800000","OBJECT_ID":"2020-035AK","RA_OF_ASC_NODE":"246.9302","MEAN_ELEMENT_THEORY":"SGP4","COUNTRY_CODE":"US","OBJECT_TYPE":"PAYLOAD","GP_ID":"195831245","RCS_SIZE":"LARGE","MEAN_MOTION_DOT":"0.00000175","DECAY_DATE":null,"NORAD_CAT_ID":"45690"},{"MEAN_MOTION_DDOT":"0.0000000000000","OBJECT_ID":"2020-035AL","BSTAR":"0.00008338400000","COUNTRY_CODE":"US","OBJECT_TYPE":"PAYLOAD","MEAN_ELEMENT_THEORY":"SGP4","RA_OF_ASC_NODE":"248.3850","NORAD_CAT_ID":"45691","DECAY_DATE":null,"RCS_SIZE":"LARGE","GP_ID":"195817275","MEAN_MOTION_DOT":"0.00000961","TLE_LINE1":"1 45691U 20035AL  22043.50196113  .00000961  00000-0  83384-4 0  9998","PERIAPSIS":"546.061","EPHEMERIS_TYPE":"0","EPOCH":"2022-02-12T12:02:49.441632","ECCENTRICITY":"0.00016040","OBJECT_NAME":"STARLINK-1415","ARG_OF_PERICENTER":"69.9276","APOAPSIS":"548.282","CLASSIFICATION_TYPE":"U","FILE":"3298493","MEAN_MOTION":"15.06413781","PERIOD":"95.591","ELEMENT_SET_NO":"999","REV_AT_EPOCH":"9487","SITE":"AFETR","INCLINATION":"53.0527","REF_FRAME":"TEME","LAUNCH_DATE":"2020-06-04","MEAN_ANOMALY":"290.1885","TLE_LINE2":"2 45691  53.0527 248.3850 0001604  69.9276 290.1885 15.06413781 94876","SEMIMAJOR_AXIS":"6925.306","CENTER_NAME":"EARTH","TIME_SYSTEM":"UTC"},{"TIME_SYSTEM":"UTC","LAUNCH_DATE":"2020-06-04","REF_FRAME":"TEME","SEMIMAJOR_AXIS":"6925.326","TLE_LINE2":"2 45692  53.0529 248.1222 0001602  72.9327 287.1837 15.06407375 94874","CENTER_NAME":"EARTH","MEAN_ANOMALY":"287.1837","REV_AT_EPOCH":"9487","INCLINATION":"53.0529","SITE":"AFETR","PERIOD":"95.592","ELEMENT_SET_NO":"999","MEAN_MOTION":"15.06407375","FILE":"3298493","CLASSIFICATION_TYPE":"U","APOAPSIS":"548.300","ARG_OF_PERICENTER":"72.9327","OBJECT_NAME":"STARLINK-1416","ECCENTRICITY":"0.00016020","EPOCH":"2022-02-12T13:27:45.852768","TLE_LINE1":"1 45692U 20035AM  22043.56094737  .00004867  00000-0  34532-3 0  9993","EPHEMERIS_TYPE":"0","PERIAPSIS":"546.082","GP_ID":"195819527","RCS_SIZE":"LARGE","MEAN_MOTION_DOT":"0.00004867","DECAY_DATE":null,"NORAD_CAT_ID":"45692","RA_OF_ASC_NODE":"248.1222","MEAN_ELEMENT_THEORY":"SGP4","COUNTRY_CODE":"US","OBJECT_TYPE":"PAYLOAD","BSTAR":"0.00034532000000","OBJECT_ID":"2020-035AM","MEAN_MOTION_DDOT":"0.0000000000000"},{"TIME_SYSTEM":"UTC","SEMIMAJOR_AXIS":"6925.371","TLE_LINE2":"2 45693  53.0530 246.8407 0001637  66.8797 293.2365 15.06392810 94510","CENTER_NAME":"EARTH","MEAN_ANOMALY":"293.2365","LAUNCH_DATE":"2020-06-04","REF_FRAME":"TEME","INCLINATION":"53.0530","SITE":"AFETR","REV_AT_EPOCH":"9451","MEAN_MOTION":"15.06392810","ELEMENT_SET_NO":"999","PERIOD":"95.593","CLASSIFICATION_TYPE":"U","FILE":"3298924","OBJECT_NAME":"STARLINK-1417","ARG_OF_PERICENTER":"66.8797","APOAPSIS":"548.369","ECCENTRICITY":"0.00016370","EPHEMERIS_TYPE":"0","PERIAPSIS":"546.102","TLE_LINE1":"1 45693U 20035AN  22043.84476279 -.00002519  00000-0 -15031-3 0  9997","EPOCH":"2022-02-12T20:16:27.505056","MEAN_MOTION_DOT":"-0.00002519","RCS_SIZE":"LARGE","GP_ID":"195831373","NORAD_CAT_ID":"45693","DECAY_DATE":null,"RA_OF_ASC_NODE":"246.8407","OBJECT_TYPE":"PAYLOAD","COUNTRY_CODE":"US","MEAN_ELEMENT_THEORY":"SGP4","OBJECT_ID":"2020-035AN","BSTAR":"-0.00015031000000","MEAN_MOTION_DDOT":"0.0000000000000"},{"EPHEMERIS_TYPE":"0","PERIAPSIS":"545.932","TLE_LINE1":"1 45694U 20035AP  22043.85213148 -.00001115  00000-0 -55981-4 0  9993","EPOCH":"2022-02-12T20:27:04.159872","ECCENTRICITY":"0.00018710","ARG_OF_PERICENTER":"71.2815","OBJECT_NAME":"STARLINK-1419","APOAPSIS":"548.524","CLASSIFICATION_TYPE":"U","FILE":"3298924","MEAN_MOTION":"15.06395307","ELEMENT_SET_NO":"999","PERIOD":"95.592","INCLINATION":"53.0528","SITE":"AFETR","REV_AT_EPOCH":"9452","MEAN_ANOMALY":"288.8377","TLE_LINE2":"2 45694  53.0528 246.7963 0001871  71.2815 288.8377 15.06395307 94523","SEMIMAJOR_AXIS":"6925.363","CENTER_NAME":"EARTH","REF_FRAME":"TEME","LAUNCH_DATE":"2020-06-04","TIME_SYSTEM":"UTC","MEAN_MOTION_DDOT":"0.0000000000000","OBJECT_ID":"2020-035AP","BSTAR":"-0.00005598100000","OBJECT_TYPE":"PAYLOAD","COUNTRY_CODE":"US","MEAN_ELEMENT_THEORY":"SGP4","RA_OF_ASC_NODE":"246.7963","NORAD_CAT_ID":"45694","DECAY_DATE":null,"MEAN_MOTION_DOT":"-0.00001115","GP_ID":"195831260","RCS_SIZE":"LARGE"},{"LAUNCH_DATE":"2020-06-04","REF_FRAME":"TEME","TLE_LINE2":"2 45695  53.0538 227.1171 0001646  67.5787 292.5377 15.06401256 94786","SEMIMAJOR_AXIS":"6925.345","CENTER_NAME":"EARTH","MEAN_ANOMALY":"292.5377","TIME_SYSTEM":"UTC","PERIOD":"95.592","ELEMENT_SET_NO":"999","MEAN_MOTION":"15.06401256","REV_AT_EPOCH":"9478","SITE":"AFETR","INCLINATION":"53.0538","APOAPSIS":"548.350","ARG_OF_PERICENTER":"67.5787","OBJECT_NAME":"STARLINK-1420","FILE":"3298930","CLASSIFICATION_TYPE":"U","EPOCH":"2022-02-12T18:43:34.056192","TLE_LINE1":"1 45695U 20035AQ  22043.78025528  .00001253  00000-0  10298-3 0  9991","PERIAPSIS":"546.070","EPHEMERIS_TYPE":"0","ECCENTRICITY":"0.00016460","DECAY_DATE":null,"NORAD_CAT_ID":"45695","RCS_SIZE":"LARGE","GP_ID":"195831389","MEAN_MOTION_DOT":"0.00001253","MEAN_ELEMENT_THEORY":"SGP4","COUNTRY_CODE":"US","OBJECT_TYPE":"PAYLOAD","RA_OF_ASC_NODE":"227.1171","BSTAR":"0.00010298000000","OBJECT_ID":"2020-035AQ","MEAN_MOTION_DDOT":"0.0000000000000"},{"RA_OF_ASC_NODE":"246.7816","COUNTRY_CODE":"US","OBJECT_TYPE":"PAYLOAD","MEAN_ELEMENT_THEORY":"SGP4","GP_ID":"195831390","RCS_SIZE":"LARGE","MEAN_MOTION_DOT":"-0.00001143","NORAD_CAT_ID":"45696","DECAY_DATE":null,"MEAN_MOTION_DDOT":"0.0000000000000","BSTAR":"-0.00005784200000","OBJECT_ID":"2020-035AR","REV_AT_EPOCH":"9451","SITE":"AFETR","INCLINATION":"53.0536","MEAN_MOTION":"15.06397072","PERIOD":"95.592","ELEMENT_SET_NO":"999","TIME_SYSTEM":"UTC","REF_FRAME":"TEME","LAUNCH_DATE":"2020-06-04","TLE_LINE2":"2 45696  53.0536 246.7816 0001978  47.4217 312.6939 15.06397072 94510","CENTER_NAME":"EARTH","SEMIMAJOR_AXIS":"6925.358","MEAN_ANOMALY":"312.6939","ECCENTRICITY":"0.00019780","TLE_LINE1":"1 45696U 20035AR  22043.85582538 -.00001143  00000-0 -57842-4 0  9996","EPHEMERIS_TYPE":"0","PERIAPSIS":"545.853","EPOCH":"2022-02-12T20:32:23.312832","FILE":"3298930","CLASSIFICATION_TYPE":"U","OBJECT_NAME":"STARLINK-1422","ARG_OF_PERICENTER":"47.4217","APOAPSIS":"548.592"},{"MEAN_MOTION_DDOT":"0.0000000000000","OBJECT_ID":"2020-035AS","BSTAR":"0.00013302000000","RA_OF_ASC_NODE":"228.3850","COUNTRY_CODE":"US","OBJECT_TYPE":"PAYLOAD","MEAN_ELEMENT_THEORY":"SGP4","GP_ID":"195819778","RCS_SIZE":"LARGE","MEAN_MOTION_DOT":"0.00001700","NORAD_CAT_ID":"45697","DECAY_DATE":null,"ECCENTRICITY":"0.00016190","TLE_LINE1":"1 45697U 20035AS  22043.50012643  .00001700  00000-0  13302-3 0  9993","EPHEMERIS_TYPE":"0","PERIAPSIS":"546.089","EPOCH":"2022-02-12T12:00:10.923552","FILE":"3298493","CLASSIFICATION_TYPE":"U","ARG_OF_PERICENTER":"85.6788","OBJECT_NAME":"STARLINK-1351","APOAPSIS":"548.331","REV_AT_EPOCH":"9515","INCLINATION":"53.0543","SITE":"AFETR","MEAN_MOTION":"15.06401081","PERIOD":"95.592","ELEMENT_SET_NO":"999","TIME_SYSTEM":"UTC","LAUNCH_DATE":"2020-06-04","REF_FRAME":"TEME","MEAN_ANOMALY":"274.4386","TLE_LINE2":"2 45697  53.0543 228.3850 0001619  85.6788 274.4386 15.06401081 95150","SEMIMAJOR_AXIS":"6925.345","CENTER_NAME":"EARTH"}];
